NORAD_CAT_ID,OBJECT_NAME,OBJECT_TYPE,EPOCH,MEAN_MOTION,ECCENTRICITY,INCLINATION,RA_OF_ASC_NODE,ARG_OF_PERICENTER,MEAN_ANOMALY,BSTAR,MEAN_MOTION_DOT,MEAN_MOTION_DDOT,TLE_LINE0,TLE_LINE1,TLE_LINE2,SEMIMAJOR_AXIS,PERIOD,APOGEE,PERIGEE,DECAYED
55656.0,STARLINK-5326,PAYLOAD,2023-05-28 06:00:00,15.52156871,0.0003308,70.0003,230.577,271.1726,157.2622,-0.017166,-0.00956557,0.0,0 STARLINK-5326,1 55656U 23021AE  23148.25001157 -.00956557  00000-0 -17166-1 0  9995,2 55656  70.0003 230.5770 0003308 271.1726 157.2622 15.52156871  1303,6788.567,92.774,412.678,408.186,0.0
55656.0,STARLINK-5326,PAYLOAD,2023-05-28 14:00:01,15.51268648,0.0003154,70.0003,229.6649,277.1781,212.9016,-0.0025613,-0.00148069,0.0,0 STARLINK-5326,1 55656U 23021AE  23148.58334491 -.00148069  00000-0 -25613-2 0  9999,2 55656  70.0003 229.6649 0003154 277.1781 212.9016 15.51268648 16209,6791.158,92.827,415.165,410.881,0.0
55656.0,STARLINK-5326,PAYLOAD,2023-05-28 22:00:00,15.5118256,0.0002934,70.0,228.7534,274.8158,276.1622,-0.00010423,-6.273e-05,0.0,0 STARLINK-5326,1 55656U 23021AE  23148.91667824 -.00006273  00000-0 -10423-3 0  9999,2 55656  70.0000 228.7534 0002934 274.8158 276.1622 15.51182560 16254,6791.409,92.832,415.267,411.282,0.0
55656.0,STARLINK-5326,PAYLOAD,2023-05-29 14:00:01,15.51203917,0.0002901,70.0004,226.9309,278.8717,33.8648,0.00094367,0.00055613,0.0,0 STARLINK-5326,1 55656U 23021AE  23149.58334491  .00055613  00000-0  94367-3 0  9993,2 55656  70.0004 226.9309 0002901 278.8717  33.8648 15.51203917 16354,6791.347,92.831,415.182,411.242,0.0
55656.0,STARLINK-5326,PAYLOAD,2023-05-29 14:12:21,15.52090226,0.000252,69.9988,226.9107,245.7318,114.3605,-0.0028396,-0.00168577,0.0,0 STARLINK-5326,1 55656U 23021AE  23149.59191279 -.00168577  00000-0 -28396-2 0  9993,2 55656  69.9988 226.9107 0002520 245.7318 114.3605 15.52090226 16665,6788.761,92.778,412.337,408.915,0.0
55656.0,STARLINK-5326,PAYLOAD,2023-05-29 22:00:00,15.5124381,0.0002819,70.0003,226.0196,275.5739,98.0787,-0.00014746,-8.822e-05,0.0,0 STARLINK-5326,1 55656U 23021AE  23149.91667824 -.00008822  00000-0 -14746-3 0  9994,2 55656  70.0003 226.0196 0002819 275.5739  98.0787 15.51243810  1306,6791.23,92.829,415.01,411.181,0.0
55656.0,STARLINK-5326,PAYLOAD,2023-05-30 06:00:00,15.51266187,0.0002849,70.0006,225.1084,272.3133,162.2594,-3.5762e-06,-3.75e-06,0.0,0 STARLINK-5326,1 55656U 23021AE  23150.25001157 -.00000375  00000-0 -35762-5 0  9992,2 55656  70.0006 225.1084 0002849 272.3133 162.2594 15.51266187 16466,6791.165,92.827,414.965,411.095,0.0
55656.0,STARLINK-5326,PAYLOAD,2023-05-30 14:00:01,15.51255027,0.0002897,70.0004,224.1971,278.8683,216.6728,1.4383e-05,6.81e-06,0.0,0 STARLINK-5326,1 55656U 23021AE  23150.58334491  .00000681  00000-0  14383-4 0  9991,2 55656  70.0004 224.1971 0002897 278.8683 216.6728 15.51255027  1303,6791.198,92.828,415.03,411.095,0.0
55656.0,STARLINK-5326,PAYLOAD,2023-05-30 22:00:00,15.51329063,0.0002864,70.0003,223.2856,274.1105,282.3761,-0.0052902,-0.00300518,0.0,0 STARLINK-5326,1 55656U 23021AE  23150.91667824 -.00300518  00000-0 -52902-2 0  9998,2 55656  70.0003 223.2856 0002864 274.1105 282.3761 15.51329063 16569,6790.982,92.824,414.792,410.902,0.0
55656.0,STARLINK-5326,PAYLOAD,2023-05-31 00:00:02,15.51265368,0.0003007,70.0002,223.0577,269.3799,32.4209,-0.0030117,-0.001735,0.0,0 STARLINK-5326,1 55656U 23021AE  23151.00002315 -.00173500  00000-0 -30117-2 0  9990,2 55656  70.0002 223.0577 0003007 269.3799  32.4209 15.51265368  1305,6791.168,92.827,415.075,410.99,0.0
55656.0,STARLINK-5326,PAYLOAD,2023-05-31 14:00:01,15.50712107,0.000346,70.0007,221.4633,272.5605,45.5451,-0.01662,-0.00873655,0.0,0 STARLINK-5326,1 55656U 23021AE  23151.58334491 -.00873655  00000-0 -16620-1 0  9996,2 55656  70.0007 221.4633 0003460 272.5605  45.5451 15.50712107 16666,6792.783,92.861,416.998,412.297,0.0
55656.0,STARLINK-5326,PAYLOAD,2023-05-31 22:00:00,15.50056231,0.0003571,70.0004,220.5529,270.1041,107.9297,-0.01717,-0.00881055,0.0,0 STARLINK-5326,1 55656U 23021AE  23151.91667824 -.00881055  00000-0 -17170-1 0  9996,2 55656  70.0004 220.5529 0003571 270.1041 107.9297 15.50056231  1303,6794.699,92.9,418.99,414.137,0.0
55656.0,STARLINK-5326,PAYLOAD,2023-06-01 06:00:00,15.49453692,0.0003579,70.0006,219.6436,268.8449,168.3113,-0.019088,-0.00965125,0.0,0 STARLINK-5326,1 55656U 23021AE  23152.25001157 -.00965125  00000-0 -19088-1 0  9996,2 55656  70.0006 219.6436 0003579 268.8449 168.3113 15.49453692 16770,6796.46,92.936,420.758,415.893,0.0
55656.0,STARLINK-5326,PAYLOAD,2023-06-01 12:00:02,15.48908896,0.0003603,70.0004,218.9623,273.6516,117.4285,-0.017532,-0.00865335,0.0,0 STARLINK-5326,1 55656U 23021AE  23152.50002315 -.00865335  00000-0 -17532-1 0  9995,2 55656  70.0004 218.9623 0003603 273.6516 117.4285 15.48908896  1303,6798.054,92.969,422.368,417.469,0.0
55656.0,STARLINK-5326,PAYLOAD,2023-06-01 22:00:00,15.4809867,0.0003353,70.0003,217.8278,270.6995,282.4086,-0.018376,-0.00880046,0.0,0 STARLINK-5326,1 55656U 23021AE  23152.91667824 -.00880046  00000-0 -18376-1 0  9995,2 55656  70.0003 217.8278 0003353 270.6995 282.4086 15.48098670 16876,6800.425,93.017,424.571,420.01,0.0
55656.0,STARLINK-5326,PAYLOAD,2023-06-02 12:41:03,15.48168249,0.0003745,69.9989,216.1661,272.1094,87.9662,-0.0079388,-0.00398472,0.0,0 STARLINK-5326,1 55656U 23021AE  23153.52851200 -.00398472  00000-0 -79388-2 0  9994,2 55656  69.9989 216.1661 0003745 272.1094  87.9662 15.48168249 17279,6800.222,93.013,424.633,419.54,0.0
55656.0,STARLINK-5326,PAYLOAD,2023-06-02 14:00:01,15.46798641,0.0003483,70.0,216.0159,273.6189,32.2856,-0.018967,-0.00869174,0.0,0 STARLINK-5326,1 55656U 23021AE  23153.58334491 -.00869174  00000-0 -18967-1 0  9995,2 55656  70.0000 216.0159 0003483 273.6189  32.2856 15.46798641 16974,6804.235,93.096,428.47,423.73,0.0
55656.0,STARLINK-5326,PAYLOAD,2023-06-02 22:00:00,15.46130035,0.0003422,69.9999,215.1109,270.9335,90.2119,-0.019176,-0.00859538,0.0,0 STARLINK-5326,1 55656U 23021AE  23153.91667824 -.00859538  00000-0 -19176-1 0  9997,2 55656  69.9999 215.1109 0003422 270.9335  90.2119 15.46130035  1303,6806.197,93.136,430.391,425.733,0.0
55656.0,STARLINK-5326,PAYLOAD,2023-06-03 06:00:00,15.4554594,0.0003429,70.0001,214.2072,270.5218,145.0473,-0.02218,-0.00977457,0.0,0 STARLINK-5326,1 55656U 23021AE  23154.25001157 -.00977457  00000-0 -22180-1 0  9996,2 55656  70.0001 214.2072 0003429 270.5218 145.0473 15.45545940 17080,6807.911,93.171,432.111,427.442,0.0
55656.0,STARLINK-5326,PAYLOAD,2023-06-03 13:32:31,15.46482266,0.0003425,69.9972,213.36,283.3798,76.7004,-0.006046,-0.00290171,0.0,0 STARLINK-5326,1 55656U 23021AE  23154.56425288 -.00290171  00000-0 -60460-2 0  9990,2 55656  69.9972 213.3600 0003425 283.3798  76.7004 15.46482266 17433,6805.163,93.115,429.359,424.697,0.0
55656.0,STARLINK-5326,PAYLOAD,2023-06-03 21:18:38,15.46018216,0.0002861,69.997,212.4827,309.0442,51.0486,-0.0057705,-0.00273128,0.0,0 STARLINK-5326,1 55656U 23021AE  23154.88794048 -.00273128  00000-0 -57705-2 0  9999,2 55656  69.9970 212.4827 0002861 309.0442  51.0486 15.46018216 17482,6806.525,93.142,430.337,426.443,0.0
55656.0,STARLINK-5326,PAYLOAD,2023-06-03 22:00:00,15.44170178,0.0003189,69.9994,212.4018,270.8729,251.2644,-0.020276,-0.00850541,0.0,0 STARLINK-5326,1 55656U 23021AE  23154.91667824 -.00850541  00000-0 -20276-1 0  9996,2 55656  69.9994 212.4018 0003189 270.8729 251.2644 15.44170178 17188,6811.954,93.254,435.992,431.647,0.0
55656.0,STARLINK-5326,PAYLOAD,2023-06-04 14:00:01,15.42893158,0.0003216,69.9994,210.6,273.7377,351.8686,-0.022137,-0.00897877,0.0,0 STARLINK-5326,1 55656U 23021AE  23155.58335648 -.00897877  00000-0 -22137-1 0  9997,2 55656  69.9994 210.6000 0003216 273.7377 351.8686 15.42893158 17283,6815.713,93.331,439.77,435.386,0.0
55656.0,STARLINK-5326,PAYLOAD,2023-06-04 16:00:00,15.42754215,0.0003313,69.9991,210.3751,275.649,92.5931,-0.023416,-0.00941491,0.0,0 STARLINK-5326,1 55656U 23021AE  23155.66667824 -.00941491  00000-0 -23416-1 0  9993,2 55656  69.9991 210.3751 0003313 275.6490  92.5931 15.42754215  1303,6816.122,93.34,440.245,435.729,0.0
55656.0,STARLINK-5326,PAYLOAD,2023-06-04 20:38:41,15.44090634,0.0004527,69.9989,209.8594,351.9912,8.1198,-0.0058635,-0.00260385,0.0,0 STARLINK-5326,1 55656U 23021AE  23155.86020419 -.00260385  00000-0 -58635-2 0  9996,2 55656  69.9989 209.8594 0004527 351.9912   8.1198 15.44090634 17634,6812.188,93.259,437.137,430.969,0.0
55656.0,STARLINK-5326,PAYLOAD,2023-06-05 06:00:00,15.41625865,0.0003346,69.9991,208.8022,270.0044,95.8191,-0.025115,-0.00969684,0.0,0 STARLINK-5326,1 55656U 23021AE  23156.25001157 -.00969684  00000-0 -25115-1 0  9992,2 55656  69.9991 208.8022 0003346 270.0044  95.8191 15.41625865 17393,6819.447,93.408,443.594,439.031,0.0
55656.0,STARLINK-5326,PAYLOAD,2023-06-05 14:00:01,15.40939378,0.0003254,69.9987,207.9044,278.0269,136.8369,-0.023795,-0.00903496,0.0,0 STARLINK-5326,1 55656U 23021AE  23156.58335648 -.00903496  00000-0 -23795-1 0  9994,2 55656  69.9987 207.9044 0003254 278.0269 136.8369 15.40939378  1300,6821.473,93.449,445.557,441.118,0.0
55656.0,STARLINK-5326,PAYLOAD,2023-06-05 22:00:00,15.40251199,0.0003177,69.9987,207.0077,272.258,190.7431,-0.022705,-0.00847088,0.0,0 STARLINK-5326,1 55656U 23021AE  23156.91667824 -.00847088  00000-0 -22705-1 0  9999,2 55656  69.9987 207.0077 0003177 272.2580 190.7431 15.40251199 17497,6823.504,93.491,447.537,443.201,0.0
55656.0,STARLINK-5326,PAYLOAD,2023-06-06 00:00:00,15.40105458,0.0003127,69.9986,206.7836,268.9637,295.9533,-0.023337,-0.00865007,0.0,0 STARLINK-5326,1 55656U 23021AE  23157.00001157 -.00865007  00000-0 -23337-1 0  9994,2 55656  69.9986 206.7836 0003127 268.9637 295.9533 15.40105458  1305,6823.935,93.5,447.934,443.666,0.0
55656.0,STARLINK-5326,PAYLOAD,2023-06-06 06:00:00,15.39663479,0.0003146,69.9989,206.1119,271.9754,238.4151,-0.026587,-0.00962308,0.0,0 STARLINK-5326,1 55656U 23021AE  23157.25001157 -.00962308  00000-0 -26587-1 0  9993,2 55656  69.9989 206.1119 0003146 271.9754 238.4151 15.39663479 17542,6825.241,93.527,449.253,444.958,0.0
